# From MPEC 2022-K19
C/2019 K7 (Smith),h,06/17.3710/2020,103.5416,307.9391,27.3696,1.000487,4.477218,2000,6.0,4.0
# From MPEC 2021-R75
C/2019 K8 (ATLAS),e,93.1887,291.0440,85.3913,2669,0.0000071,0.99880322,0.0000,07/21.7256/2019,2000,g 11.5,4.0
# From MPC118095
C/2019 L1 (PANSTARRS),e,9.9863,254.4265,50.0208,9.842531,0.0319186,0.70583074,32.5169,05/26.0/2022,2000,g 13.5,4.0
# From MPC115886
C/2019 L2 (NEOWISE),e,152.2056,12.5530,18.7986,24.93099,0.0079176,0.93485267,9.1079,05/26.0/2022,2000,g 16.0,4.0
# From MPEC 2021-Y10
P/2019 LD2 (ATLAS),e,11.6207,179.5922,121.6480,5.240573,0.0821554,0.12774081,65.3106,05/26.0/2022,2000,g  8.5,4.0
# From MPEC 2022-K19
C/2019 L3 (ATLAS),h,01/09.6165/2022,48.3588,290.7895,171.6098,1.001701,3.554451,2000,4.5,4.0
# From MPC118095
C/2019 LB7 (Kleyna),e,164.2916,3.8884,336.4981,34.56029,0.0048511,0.92805390,5.6107,05/26.0/2022,2000,g 17.0,4.0
# From MPC118843
P/2019 M2 (ATLAS),e,12.2778,307.6086,332.5765,3.027893,0.1870653,0.64780385,199.8990,05/26.0/2022,2000,g 21.2,4.0
# From MPC118095
C/2019 M3 (ATLAS),h,01/01.6687/2019,99.4851,154.9100,87.8824,1.000018,2.419645,2000,12.2,4.0
# From MPEC 2022-C56
C/2019 N1 (ATLAS),e,82.4288,13.5745,193.4421,3116,0.0000057,0.99945284,0.0000,12/01.6862/2020,2000,g  7.5,4.0
# From MPEC 2022-A21
C/2019 NJ3 (Lemmon),h,10/22.6870/2020,99.4359,142.4580,246.8907,1.001905,4.362476,2000,9.0,4.0
# From MPEC 2022-K19
A/2019 O2,e,93.2974,48.2789,129.6618,57.51798,0.0022594,0.83165845,359.2843,05/26.0/2022,2000,g  9.5,2.0
# From MPEC 2022-K19
C/2019 O3 (Palomar),h,03/09.0693/2021,89.8192,300.3952,60.1043,1.003795,8.820155,2000,3.5,4.0
# From MPEC 2021-P47
A/2019 O4,e,115.0965,354.9077,61.8816,33.11510,0.0051721,0.88988970,4.3216,05/26.0/2022,2000,g 15.5,2.0
# From MPEC 2021-N06
C/2019 Q1 (Lemmon),h,07/20.2736/2020,155.7253,42.4720,56.1476,1.000133,4.999963,2000,8.5,4.0
# From MPC117072
A/2019 Q2,e,159.0304,188.0083,176.3319,57.36665,0.0022684,0.97803250,0.0000,07/22.0378/2019,2000,g 18.0,2.0
# From MPC117072
C/2019 Q3 (PANSTARRS),h,08/21.5486/2018,65.5274,151.3246,152.7591,1.003118,7.260787,2000,8.5,4.0
# From MPC117072
P/2019 S2 (PANSTARRS),e,10.4696,93.1396,217.0773,4.740156,0.0955026,0.20633411,113.5088,05/26.0/2022,2000,g 13.5,4.0
# From MPEC 2022-CN4
P/2019 S3 (PANSTARRS),e,8.6948,150.1607,213.0127,3.415338,0.1561542,0.47121438,156.6712,05/26.0/2022,2000,g 18.3,4.0
# From MPEC 2021-S45
C/2019 S4 (Lemmon),e,92.0491,63.1532,71.3690,230.5403,0.0002816,0.98506762,0.0000,04/07.9002/2020,2000,g 11.0,4.0
# From MPEC 2022-HC2
A/2019 T1,e,120.8757,6.9455,91.0656,38.51763,0.0041230,0.88882839,2.0468,05/26.0/2022,2000,g 13.0,2.0
# From MPEC 2022-J42
C/2019 T2 (Lemmon),e,111.4883,155.6435,239.4145,2520,0.0000078,0.99895000,0.0000,04/22.3782/2021,2000,g  9.0,4.0
# From MPEC 2022-C56
C/2019 T3 (ATLAS),e,121.8531,139.5283,112.3858,3521,0.0000047,0.99831058,0.0000,03/03.7501/2021,2000,g  6.8,4.0
# From MPEC 2022-K19
C/2019 T4 (ATLAS),e,53.6287,199.9390,351.2010,1005,0.0000309,0.99578018,0.0000,06/09.1368/2022,2000,g  5.0,4.0
# From MPEC 2021-P47
P/2019 T5 (ATLAS),e,33.4576,247.6482,189.5620,7.995738,0.0435929,0.80924955,44.8430,05/26.0/2022,2000,g 15.0,4.0
# From MPEC 2021-P47
P/2019 T6 (PANSTARRS),e,18.6966,71.2582,328.9389,5.435737,0.0777708,0.62288383,72.3176,05/26.0/2022,2000,g 15.5,4.0
# From MPC118096
P/2019 U4 (PANSTARRS),e,11.6980,200.0020,180.9959,3.520401,0.1492162,0.47587581,146.2470,05/26.0/2022,2000,g 19.0,4.0
# From MPEC 2022-K19
C/2019 U5 (PANSTARRS),h,03/29.9714/2023,113.5208,2.6376,181.5218,1.001287,3.623771,2000,4.5,4.0
# From MPEC 2022-H04
C/2019 U6 (Lemmon),e,60.9940,235.7182,329.6322,368.2363,0.0001395,0.99751708,0.0000,06/18.6353/2020,2000,g 10.0,4.0
# From MPC119998
C/2019 V1 (Borisov),e,61.8763,83.1835,51.1710,1432,0.0000182,0.99783706,0.0000,07/16.3811/2020,2000,g 11.0,4.0
# From MPEC 2022-HC2
P/2019 V2 (Groeller),e,11.8077,189.1829,335.8900,7.505484,0.0479332,0.33125435,28.0117,05/26.0/2022,2000,g 10.0,4.0
# From MPC119998
P/2019 W1 (PANSTARRS),e,23.4699,35.3802,18.6867,4.549539,0.1015671,0.26674859,113.1344,05/26.0/2022,2000,g 12.9,4.0
# From MPEC 2021-P47
P/2019 X1 (Pruyne),e,10.2478,43.6731,36.7846,6.173085,0.0642615,0.30321658,66.8097,05/26.0/2022,2000,g 10.4,4.0
# From MPC119999
C/2019 Y1 (ATLAS),e,73.3217,31.5393,57.9419,85.81205,0.0012399,0.99032098,0.0000,03/15.6815/2020,2000,g 13.7,4.0
# From MPEC 2020-L06
C/2019 Y4 (ATLAS),h,05/31.0395/2020,45.7769,120.9588,177.2819,1.001407,0.252034,2000,11.6,6.0
# From MPEC 2020-L06
C/2019 Y4-A (ATLAS),h,05/31.0395/2020,45.7769,120.9588,177.2819,1.001407,0.252034,2000,11.6,6.0
# From MPEC 2020-L06
C/2019 Y4-B (ATLAS),e,45.4117,120.6544,177.4149,1453,0.0000178,0.99982553,0.0000,05/31.0175/2020,2000,g 12.8,6.0
# From MPEC 2020-L06
C/2019 Y4-C (ATLAS),h,05/30.9963/2020,45.5590,120.6849,177.3154,1.002127,0.253093,2000,12.7,6.0
# From MPEC 2020-L06
C/2019 Y4-D (ATLAS),e,45.6014,121.0637,177.4532,68.32511,0.0017452,0.99630501,0.0000,05/31.1171/2020,2000,g 12.5,6.0
# From MPEC 2021-P47
C/2019 Y5 (PANSTARRS),e,82.7891,51.7699,303.5258,800.0788,0.0000436,0.99385542,0.0000,08/18.2061/2019,2000,g 11.0,4.0
# From MPEC 2022-HC2
A/2020 A1,e,149.0397,119.2556,302.5784,25.51204,0.0076487,0.93463332,6.9245,05/26.0/2022,2000,g 18.0,2.0
# From MPEC 2020-L06
C/2020 A2 (Iwamoto),e,120.7015,286.3531,68.1557,1335,0.0000202,0.99926897,0.0000,01/08.5250/2020,2000,g 13.5,4.0
# From MPEC 2020-L06
C/2020 A3 (ATLAS),h,07/29.8346/2019,146.7662,120.3860,271.1566,1.026086,5.837242,2000,8.0,4.0
# From MPEC 2020-L06
C/2020 B3 (Rankin),e,20.7103,185.8470,324.9825,1046,0.0000291,0.99680671,0.0000,10/19.4272/2019,2000,g 13.0,4.0
# From MPEC 2022-H04
P/2020 B4 (Sheppard),e,11.6087,185.9794,342.2371,7.967080,0.0438284,0.19169594,8.1195,05/26.0/2022,2000,g 10.5,4.0
# From MPEC 2022-K19
C/2020 F2 (ATLAS),h,07/15.8024/2022,163.5844,250.2705,48.3585,1.005027,8.817103,2000,4.5,4.0
# From MPEC 2021-O56
C/2020 F3 (NEOWISE),e,129.0118,61.0354,37.3143,342.3109,0.0001556,0.99913751,0.0000,07/03.6090/2020,2000,g  7.5,5.2
# From MPEC 2022-CN4
C/2020 F5 (MASTER),e,52.2808,350.5278,310.7874,263.6298,0.0002303,0.98360112,0.0000,03/19.8028/2021,2000,g  6.5,3.2
# From MPEC 2020-L06
C/2020 F6 (PANSTARRS),e,174.5829,207.9034,344.6123,413.7575,0.0001171,0.99151763,0.0000,04/11.7703/2020,2000,g 14.5,2.8
# From MPEC 2022-HC2
C/2020 F7 (Lemmon),e,93.9516,321.8838,227.9608,647.6637,0.0000598,0.99176722,0.0000,11/13.9173/2021,2000,g  7.0,4.0
# From MPEC 2020-KB7
C/2020 F8 (SWAN),e,110.7222,259.9485,68.1675,265.2022,0.0002282,0.99837997,0.0000,05/27.5621/2020,2000,g 10.0,4.0
# From MPEC 2020-L06
P/2020 G1 (Pimentel),e,18.4919,240.1040,207.6248,3.609060,0.1437516,0.86004993,114.9497,05/26.0/2022,2000,g 17.0,4.0
# From MPEC 2020-L06
C/2020 H2 (Pruyne),e,124.9915,277.6538,26.7005,192.6616,0.0003686,0.99567649,0.0000,04/27.7334/2020,2000,g 18.0,4.0
# From MPEC 2020-HM1
C/2020 H3 (Wierzchos),p,06/05.7162/2020,62.5292,30.4456,2.300288,270.6227,2000,13.5,4.0
# From MPEC 2020-L06
C/2020 H4 (Leonard),e,84.5080,307.7158,117.5665,47.97041,0.0029665,0.98070111,0.0000,08/29.5775/2020,2000,g 15.0,3.2
# From MPEC 2022-K19
C/2020 H5 (Robinson),e,70.2428,210.6281,326.3849,3476,0.0000048,0.99731133,0.0000,12/11.5911/2020,2000,g  5.0,4.0
# From MPEC 2022-K19
C/2020 H6 (ATLAS),h,10/01.0199/2021,79.9743,213.7116,20.3406,1.000382,4.702830,2000,8.0,3.2
# From MPEC 2020-KB7
C/2020 H7 (Lemmon),e,135.9235,323.5194,82.6780,1405,0.0000187,0.99685380,0.0000,06/02.9510/2020,2000,g 11.0,4.0
# From MPEC 2021-N06
C/2020 H8 (PANSTARRS),e,99.6635,68.4120,128.9480,591.1727,0.0000686,0.99209042,0.0000,06/04.4856/2020,2000,g 10.5,4.0
# From MPEC 2022-ED3
A/2020 H9,e,137.8735,213.1598,312.8666,369.3905,0.0001388,0.99302202,0.0000,12/21.3601/2019,2000,g 18.0,2.0
# From MPEC 2022-K19
C/2020 J1 (SONEAR),h,04/18.6456/2021,142.3005,226.5889,341.7631,1.000678,3.355109,2000,8.5,3.2
# From MPEC 2022-K19
C/2020 K1 (PANSTARRS),e,89.6621,94.3568,213.9770,31077,0.0000002,0.99990110,0.0000,05/09.0672/2023,2000,g  5.5,4.0
# From MPEC 2021-N06
C/2020 K2 (PANSTARRS),h,08/06.0903/2020,91.0368,288.3652,67.3373,1.003634,8.879320,2000,10.8,4.0
# From MPEC 2020-KF9
C/2020 K3 (Leonard),p,06/01.0032/2020,129.0152,64.4924,1.583069,28.3546,2000,14.5,4.0
# From MPEC 2020-L06
C/2020 K4 (PANSTARRS),e,125.5750,264.1350,308.8278,23.92233,0.0084236,0.92666413,6.8506,05/26.0/2022,2000,g 16.5,4.0
# From MPEC 2021-R75
C/2020 K5 (PANSTARRS),h,06/05.5689/2021,67.1440,86.1667,249.5969,1.001484,1.535907,2000,11.0,4.0
# From MPEC 2022-K19
C/2020 K6 (Rankin),h,09/15.6949/2021,103.6471,291.5323,44.3199,1.003377,5.868586,2000,8.0,4.0
# From MPEC 2021-S45
C/2020 K7 (PANSTARRS),e,32.0394,286.0677,358.2536,100.7471,0.0009747,0.93656805,0.9164,05/26.0/2022,2000,g  8.0,4.0
# From MPEC 2021-P47
C/2020 K8 (Catalina-ATLAS),h,09/14.5913/2020,31.4285,181.5436,259.9903,1.000149,0.473430,2000,15.0,3.2
# From MPEC 2021-BE3
P/2020 K9 (Lemmon-PANSTARRS),e,23.2099,166.2391,196.9551,4.200290,0.1144946,0.32141118,53.5707,05/26.0/2022,2000,g 12.5,4.0
# From MPEC 2021-U31
P/2020 M1 (PANSTARRS),e,8.5778,142.7481,72.3186,5.311056,0.0805254,0.47719457,70.7271,05/26.0/2022,2000,g 14.5,4.0
# From MPEC 2022-H30
C/2020 M3 (ATLAS),e,23.4722,71.2117,328.4858,26.96990,0.0070370,0.95298652,4.0623,05/26.0/2022,2000,g 14.5,4.0
# From MPEC 2022-CN4
A/2020 M4,h,11/24.1832/2020,160.1278,348.6210,104.6557,1.000439,5.952620,2000,14.5,2.0
# From MPEC 2022-K19
C/2020 M5 (ATLAS),h,08/19.8734/2021,93.2252,352.0938,126.3329,1.000325,3.004160,2000,9.0,4.0
# From MPEC 2022-GA9
C/2020 N1 (PANSTARRS),h,03/12.2220/2021,29.7070,279.9648,186.7573,1.000446,1.320017,2000,12.5,4.0
# From MPEC 2021-P47
C/2020 N2 (ATLAS),e,161.0353,257.1110,331.2868,103.4314,0.0009370,0.98265139,0.0000,08/23.8208/2020,2000,g 16.0,3.2
# From MPEC 2020-SI8
P/2020 O1 (Lemmon-PANSTARRS),e,5.2259,175.9742,104.5310,2.644897,0.2291348,0.11924495,172.6640,05/26.0/2022,2000,g 15.5,4.0
# From MPEC 2022-K19
C/2020 O2 (Amaral),h,08/28.6559/2021,71.7528,256.7589,10.3152,1.002252,4.862391,2000,8.0,3.2
# From MPEC 2020-SI8
